[{"OBJECT_NAME":"ONEWEB-0574","OBJECT_ID":"2023-043T","EPOCH":"2026-01-05T07:02:34.327968","MEAN_MOTION":13.21824882,"ECCENTRICITY":0.00018122,"INCLINATION":87.9228,"RA_OF_ASC_NODE":276.4553,"ARG_OF_PERICENTER":75.8441,"MEAN_ANOMALY":284.2894,"EPHEMERIS_TYPE":0,"CLASSIFICATION_TYPE":"U","NORAD_CAT_ID":56063,"ELEMENT_SET_NO":999,"REV_AT_EPOCH":13675,"BSTAR":-0.00068528553,"MEAN_MOTION_DOT":-2.7e-6,"MEAN_MOTION_DDOT":0},{"OBJECT_NAME":"ONEWEB-0575","OBJECT_ID":"2023-043U","EPOCH":"2026-01-05T03:26:05.286336","MEAN_MOTION":13.1659424,"ECCENTRICITY":0.00018612,"INCLINATION":87.904,"RA_OF_ASC_NODE":261.2337,"ARG_OF_PERICENTER":82.5303,"MEAN_ANOMALY":277.6039,"EPHEMERIS_TYPE":0,"CLASSIFICATION_TYPE":"U","NORAD_CAT_ID":56064,"ELEMENT_SET_NO":999,"REV_AT_EPOCH":13751,"BSTAR":0.00036133918,"MEAN_MOTION_DOT":1.51e-6,"MEAN_MOTION_DDOT":0},{"OBJECT_NAME":"ONEWEB-0576","OBJECT_ID":"2023-043V","EPOCH":"2026-01-04T17:51:27.062208","MEAN_MOTION":13.16672684,"ECCENTRICITY":0.00013408,"INCLINATION":87.9044,"RA_OF_ASC_NODE":261.3147,"ARG_OF_PERICENTER":89.5104,"MEAN_ANOMALY":270.618,"EPHEMERIS_TYPE":0,"CLASSIFICATION_TYPE":"U","NORAD_CAT_ID":56065,"ELEMENT_SET_NO":999,"REV_AT_EPOCH":13745,"BSTAR":0.027748247,"MEAN_MOTION_DOT":0.00010645,"MEAN_MOTION_DDOT":0},{"OBJECT_NAME":"ONEWEB-0577","OBJECT_ID":"2023-043W","EPOCH":"2026-01-05T03:07:51.057120","MEAN_MOTION":13.16594283,"ECCENTRICITY":0.00023,"INCLINATION":87.9046,"RA_OF_ASC_NODE":261.2369,"ARG_OF_PERICENTER":79.1557,"MEAN_ANOMALY":280.9833,"EPHEMERIS_TYPE":0,"CLASSIFICATION_TYPE":"U","NORAD_CAT_ID":56066,"ELEMENT_SET_NO":999,"REV_AT_EPOCH":13753,"BSTAR":0.00035242531,"MEAN_MOTION_DOT":1.48e-6,"MEAN_MOTION_DDOT":0},{"OBJECT_NAME":"ONEWEB-0578","OBJECT_ID":"2023-043X","EPOCH":"2026-01-05T06:43:38.214624","MEAN_MOTION":13.2182645,"ECCENTRICITY":0.00015799,"INCLINATION":87.9225,"RA_OF_ASC_NODE":276.469,"ARG_OF_PERICENTER":83.1833,"MEAN_ANOMALY":276.948,"EPHEMERIS_TYPE":0,"CLASSIFICATION_TYPE":"U","NORAD_CAT_ID":56067,"ELEMENT_SET_NO":999,"REV_AT_EPOCH":13671,"BSTAR":0.00019690291,"MEAN_MOTION_DOT":9.4e-7,"MEAN_MOTION_DDOT":0},{"OBJECT_NAME":"ONEWEB-0579","OBJECT_ID":"2023-043Y","EPOCH":"2026-01-05T06:29:23.254656","MEAN_MOTION":13.21823758,"ECCENTRICITY":0.00016561,"INCLINATION":87.9228,"RA_OF_ASC_NODE":276.4589,"ARG_OF_PERICENTER":63.7154,"MEAN_ANOMALY":296.415,"EPHEMERIS_TYPE":0,"CLASSIFICATION_TYPE":"U","NORAD_CAT_ID":56068,"ELEMENT_SET_NO":999,"REV_AT_EPOCH":13672,"BSTAR":0.00015568564,"MEAN_MOTION_DOT":7.7e-7,"MEAN_MOTION_DDOT":0},{"OBJECT_NAME":"ONEWEB-0581","OBJECT_ID":"2023-043Z","EPOCH":"2026-01-05T03:16:58.283616","MEAN_MOTION":13.16594303,"ECCENTRICITY":0.00019292,"INCLINATION":87.9041,"RA_OF_ASC_NODE":261.2486,"ARG_OF_PERICENTER":73.3845,"MEAN_ANOMALY":286.7498,"EPHEMERIS_TYPE":0,"CLASSIFICATION_TYPE":"U","NORAD_CAT_ID":56069,"ELEMENT_SET_NO":999,"REV_AT_EPOCH":13750,"BSTAR":0.00020307399,"MEAN_MOTION_DOT":9.0e-7,"MEAN_MOTION_DDOT":0},{"OBJECT_NAME":"ONEWEB-0609","OBJECT_ID":"2023-043AA","EPOCH":"2026-01-05T06:27:18.525024","MEAN_MOTION":13.15548102,"ECCENTRICITY":0.00016099,"INCLINATION":87.9014,"RA_OF_ASC_NODE":291.7329,"ARG_OF_PERICENTER":73.5385,"MEAN_ANOMALY":286.5922,"EPHEMERIS_TYPE":0,"CLASSIFICATION_TYPE":"U","NORAD_CAT_ID":56070,"ELEMENT_SET_NO":999,"REV_AT_EPOCH":13501,"BSTAR":-1.8579433e-5,"MEAN_MOTION_DOT":6.0e-8,"MEAN_MOTION_DDOT":0},{"OBJECT_NAME":"ONEWEB-0613","OBJECT_ID":"2023-043AB","EPOCH":"2026-01-05T06:20:27.620448","MEAN_MOTION":13.15547546,"ECCENTRICITY":0.00015838,"INCLINATION":87.901,"RA_OF_ASC_NODE":291.7452,"ARG_OF_PERICENTER":65.0968,"MEAN_ANOMALY":295.0327,"EPHEMERIS_TYPE":0,"CLASSIFICATION_TYPE":"U","NORAD_CAT_ID":56071,"ELEMENT_SET_NO":999,"REV_AT_EPOCH":13501,"BSTAR":0.0001023248,"MEAN_MOTION_DOT":5.1e-7,"MEAN_MOTION_DDOT":0},{"OBJECT_NAME":"ONEWEB-0630","OBJECT_ID":"2023-043AC","EPOCH":"2026-01-05T06:13:36.751296","MEAN_MOTION":13.15547582,"ECCENTRICITY":0.00016289,"INCLINATION":87.901,"RA_OF_ASC_NODE":291.7175,"ARG_OF_PERICENTER":63.419,"MEAN_ANOMALY":296.7107,"EPHEMERIS_TYPE":0,"CLASSIFICATION_TYPE":"U","NORAD_CAT_ID":56072,"ELEMENT_SET_NO":999,"REV_AT_EPOCH":13500,"BSTAR":0.00014537331,"MEAN_MOTION_DOT":6.8e-7,"MEAN_MOTION_DDOT":0},{"OBJECT_NAME":"ONEWEB-0632","OBJECT_ID":"2023-043AD","EPOCH":"2026-01-05T06:06:45.849312","MEAN_MOTION":13.155492,"ECCENTRICITY":0.00018233,"INCLINATION":87.9007,"RA_OF_ASC_NODE":291.7358,"ARG_OF_PERICENTER":72.0786,"MEAN_ANOMALY":288.0543,"EPHEMERIS_TYPE":0,"CLASSIFICATION_TYPE":"U","NORAD_CAT_ID":56073,"ELEMENT_SET_NO":999,"REV_AT_EPOCH":13500,"BSTAR":0.00028017129,"MEAN_MOTION_DOT":1.18e-6,"MEAN_MOTION_DDOT":0},{"OBJECT_NAME":"ONEWEB-0633","OBJECT_ID":"2023-043AE","EPOCH":"2026-01-05T05:57:38.634912","MEAN_MOTION":13.1554818,"ECCENTRICITY":0.00014,"INCLINATION":87.9008,"RA_OF_ASC_NODE":291.7003,"ARG_OF_PERICENTER":61.4409,"MEAN_ANOMALY":298.6863,"EPHEMERIS_TYPE":0,"CLASSIFICATION_TYPE":"U","NORAD_CAT_ID":56074,"ELEMENT_SET_NO":999,"REV_AT_EPOCH":13498,"BSTAR":0.00062531571,"MEAN_MOTION_DOT":2.48e-6,"MEAN_MOTION_DDOT":0},{"OBJECT_NAME":"ONEWEB-0634","OBJECT_ID":"2023-043AF","EPOCH":"2026-01-05T05:37:06.522528","MEAN_MOTION":13.15547685,"ECCENTRICITY":0.00013988,"INCLINATION":87.9012,"RA_OF_ASC_NODE":291.7544,"ARG_OF_PERICENTER":81.0705,"MEAN_ANOMALY":279.0584,"EPHEMERIS_TYPE":0,"CLASSIFICATION_TYPE":"U","NORAD_CAT_ID":56075,"ELEMENT_SET_NO":999,"REV_AT_EPOCH":13497,"BSTAR":0.00059974142,"MEAN_MOTION_DOT":2.39e-6,"MEAN_MOTION_DDOT":0},{"OBJECT_NAME":"ONEWEB-0635","OBJECT_ID":"2023-043AG","EPOCH":"2026-01-05T07:19:47.099136","MEAN_MOTION":13.15548717,"ECCENTRICITY":0.00019595,"INCLINATION":87.9005,"RA_OF_ASC_NODE":291.6932,"ARG_OF_PERICENTER":73.5395,"MEAN_ANOMALY":286.5951,"EPHEMERIS_TYPE":0,"CLASSIFICATION_TYPE":"U","NORAD_CAT_ID":56076,"ELEMENT_SET_NO":999,"REV_AT_EPOCH":13501,"BSTAR":0.00032989944,"MEAN_MOTION_DOT":1.37e-6,"MEAN_MOTION_DDOT":0},{"OBJECT_NAME":"ONEWEB-0636","OBJECT_ID":"2023-043AH","EPOCH":"2026-01-05T05:18:51.091488","MEAN_MOTION":13.15549299,"ECCENTRICITY":0.00018862,"INCLINATION":87.9006,"RA_OF_ASC_NODE":291.7273,"ARG_OF_PERICENTER":74.294,"MEAN_ANOMALY":285.8398,"EPHEMERIS_TYPE":0,"CLASSIFICATION_TYPE":"U","NORAD_CAT_ID":56077,"ELEMENT_SET_NO":999,"REV_AT_EPOCH":13498,"BSTAR":0.00048086977,"MEAN_MOTION_DOT":1.94e-6,"MEAN_MOTION_DDOT":0},{"OBJECT_NAME":"ONEWEB-0637","OBJECT_ID":"2023-043AJ","EPOCH":"2026-01-05T06:59:13.780608","MEAN_MOTION":13.15550835,"ECCENTRICITY":0.00018014,"INCLINATION":87.9007,"RA_OF_ASC_NODE":291.7302,"ARG_OF_PERICENTER":82.7411,"MEAN_ANOMALY":277.3924,"EPHEMERIS_TYPE":0,"CLASSIFICATION_TYPE":"U","NORAD_CAT_ID":56078,"ELEMENT_SET_NO":999,"REV_AT_EPOCH":13501,"BSTAR":-0.00026814192,"MEAN_MOTION_DOT":-8.8e-7,"MEAN_MOTION_DDOT":0}]
